CCSDS_OMM_VERS = 2.0
CREATION_DATE  = 
ORIGINATOR     = 

OBJECT_NAME    = IDEFIX & ARIANE 42P R/B
OBJECT_ID      = 2002-021B
CENTER_NAME    = EARTH
REF_FRAME      = TEME
TIME_SYSTEM    = UTC
MEAN_ELEMENT_THEORY = SGP/SGP4

EPOCH          = 2026-02-25T09:35:31.254720
MEAN_MOTION    = 14.31016127
ECCENTRICITY   = .00109291
INCLINATION    = 98.5857
RA_OF_ASC_NODE = 355.1539
ARG_OF_PERICENTER = 220.1055
MEAN_ANOMALY   = 139.9322

EPHEMERIS_TYPE = 0
CLASSIFICATION_TYPE = U
NORAD_CAT_ID   = 27422
ELEMENT_SET_NO = 999
REV_AT_EPOCH   = 24226
BSTAR          = .11625726E-3
MEAN_MOTION_DOT = .262E-5
MEAN_MOTION_DDOT = 0

CCSDS_OMM_VERS = 2.0
CREATION_DATE  = 
ORIGINATOR     = 

OBJECT_NAME    = AQUA
OBJECT_ID      = 2002-022A
CENTER_NAME    = EARTH
REF_FRAME      = TEME
TIME_SYSTEM    = UTC
MEAN_ELEMENT_THEORY = SGP/SGP4

EPOCH          = 2026-02-25T13:55:02.923680
MEAN_MOTION    = 14.61942449
ECCENTRICITY   = .0000878
INCLINATION    = 98.4151
RA_OF_ASC_NODE = 23.7264
ARG_OF_PERICENTER = 49.0037
MEAN_ANOMALY   = 62.2438

EPHEMERIS_TYPE = 0
CLASSIFICATION_TYPE = U
NORAD_CAT_ID   = 27424
ELEMENT_SET_NO = 999
REV_AT_EPOCH   = 26696
BSTAR          = .21165044E-3
MEAN_MOTION_DOT = .1011E-4
MEAN_MOTION_DDOT = 0

CCSDS_OMM_VERS = 2.0
CREATION_DATE  = 
ORIGINATOR     = 

OBJECT_NAME    = CZ-4B R/B
OBJECT_ID      = 2002-024C
CENTER_NAME    = EARTH
REF_FRAME      = TEME
TIME_SYSTEM    = UTC
MEAN_ELEMENT_THEORY = SGP/SGP4

EPOCH          = 2026-02-25T02:53:21.741792
MEAN_MOTION    = 14.14545069
ECCENTRICITY   = .00509993
INCLINATION    = 98.8870
RA_OF_ASC_NODE = 109.5888
ARG_OF_PERICENTER = 59.4948
MEAN_ANOMALY   = 320.7455

EPHEMERIS_TYPE = 0
CLASSIFICATION_TYPE = U
NORAD_CAT_ID   = 27432
ELEMENT_SET_NO = 999
REV_AT_EPOCH   = 22746
BSTAR          = .36760813E-4
MEAN_MOTION_DOT = .27E-6
MEAN_MOTION_DDOT = 0

CCSDS_OMM_VERS = 2.0
CREATION_DATE  = 
ORIGINATOR     = 

OBJECT_NAME    = MIDORI II (ADEOS-II)
OBJECT_ID      = 2002-056A
CENTER_NAME    = EARTH
REF_FRAME      = TEME
TIME_SYSTEM    = UTC
MEAN_ELEMENT_THEORY = SGP/SGP4

EPOCH          = 2026-02-25T11:35:15.956448
MEAN_MOTION    = 14.29274294
ECCENTRICITY   = .00019709
INCLINATION    = 98.7746
RA_OF_ASC_NODE = 14.8780
ARG_OF_PERICENTER = 60.0459
MEAN_ANOMALY   = 300.0917

EPHEMERIS_TYPE = 0
CLASSIFICATION_TYPE = U
NORAD_CAT_ID   = 27597
ELEMENT_SET_NO = 999
REV_AT_EPOCH   = 20855
BSTAR          = .11830526E-3
MEAN_MOTION_DOT = .256E-5
MEAN_MOTION_DDOT = 0

CCSDS_OMM_VERS = 2.0
CREATION_DATE  = 
ORIGINATOR     = 

OBJECT_NAME    = H-2A R/B
OBJECT_ID      = 2002-056E
CENTER_NAME    = EARTH
REF_FRAME      = TEME
TIME_SYSTEM    = UTC
MEAN_ELEMENT_THEORY = SGP/SGP4

EPOCH          = 2026-02-25T12:06:18.928800
MEAN_MOTION    = 14.33751356
ECCENTRICITY   = .00697348
INCLINATION    = 98.3178
RA_OF_ASC_NODE = 17.3356
ARG_OF_PERICENTER = 197.0027
MEAN_ANOMALY   = 274.7112

EPHEMERIS_TYPE = 0
CLASSIFICATION_TYPE = U
NORAD_CAT_ID   = 27601
ELEMENT_SET_NO = 999
REV_AT_EPOCH   = 21236
BSTAR          = .10980051E-3
MEAN_MOTION_DOT = .272E-5
MEAN_MOTION_DDOT = 0

CCSDS_OMM_VERS = 2.0
CREATION_DATE  = 
ORIGINATOR     = 

OBJECT_NAME    = CZ-4B R/B
OBJECT_ID      = 2003-049C
CENTER_NAME    = EARTH
REF_FRAME      = TEME
TIME_SYSTEM    = UTC
MEAN_ELEMENT_THEORY = SGP/SGP4

EPOCH          = 2026-02-25T13:19:47.409312
MEAN_MOTION    = 14.55005908
ECCENTRICITY   = .00469908
INCLINATION    = 98.6867
RA_OF_ASC_NODE = 50.9854
ARG_OF_PERICENTER = 268.8006
MEAN_ANOMALY   = 90.7806

EPHEMERIS_TYPE = 0
CLASSIFICATION_TYPE = U
NORAD_CAT_ID   = 28059
ELEMENT_SET_NO = 999
REV_AT_EPOCH   = 18483
BSTAR          = .10291594E-3
MEAN_MOTION_DOT = .398E-5
MEAN_MOTION_DDOT = 0

CCSDS_OMM_VERS = 2.0
CREATION_DATE  = 
ORIGINATOR     = 

OBJECT_NAME    = CZ-2C R/B
OBJECT_ID      = 2004-012C
CENTER_NAME    = EARTH
REF_FRAME      = TEME
TIME_SYSTEM    = UTC
MEAN_ELEMENT_THEORY = SGP/SGP4

EPOCH          = 2026-02-25T13:52:59.473632
MEAN_MOTION    = 15.62960860
ECCENTRICITY   = .00140044
INCLINATION    = 97.7265
RA_OF_ASC_NODE = 120.7374
ARG_OF_PERICENTER = 358.4403
MEAN_ANOMALY   = 1.6808

EPHEMERIS_TYPE = 0
CLASSIFICATION_TYPE = U
NORAD_CAT_ID   = 28222
ELEMENT_SET_NO = 999
REV_AT_EPOCH   = 20238
BSTAR          = .54837097E-3
MEAN_MOTION_DOT = .49969E-3
MEAN_MOTION_DDOT = 0

CCSDS_OMM_VERS = 2.0
CREATION_DATE  = 
ORIGINATOR     = 

OBJECT_NAME    = SL-16 R/B
OBJECT_ID      = 2004-021B
CENTER_NAME    = EARTH
REF_FRAME      = TEME
TIME_SYSTEM    = UTC
MEAN_ELEMENT_THEORY = SGP/SGP4

EPOCH          = 2026-02-25T12:09:30.760992
MEAN_MOTION    = 14.14599270
ECCENTRICITY   = .00034186
INCLINATION    = 70.9989
RA_OF_ASC_NODE = 258.0614
ARG_OF_PERICENTER = 37.1991
MEAN_ANOMALY   = 322.9368

EPHEMERIS_TYPE = 0
CLASSIFICATION_TYPE = U
NORAD_CAT_ID   = 28353
ELEMENT_SET_NO = 999
REV_AT_EPOCH   = 12111
BSTAR          = .67445204E-4
MEAN_MOTION_DOT = .82E-6
MEAN_MOTION_DDOT = 0

CCSDS_OMM_VERS = 2.0
CREATION_DATE  = 
ORIGINATOR     = 

OBJECT_NAME    = CZ-4B R/B
OBJECT_ID      = 2004-035C
CENTER_NAME    = EARTH
REF_FRAME      = TEME
TIME_SYSTEM    = UTC
MEAN_ELEMENT_THEORY = SGP/SGP4

EPOCH          = 2026-02-25T12:57:16.038144
MEAN_MOTION    = 15.28811280
ECCENTRICITY   = .00325324
INCLINATION    = 97.3529
RA_OF_ASC_NODE = 90.9295
ARG_OF_PERICENTER = 15.1383
MEAN_ANOMALY   = 345.0822

EPHEMERIS_TYPE = 0
CLASSIFICATION_TYPE = U
NORAD_CAT_ID   = 28415
ELEMENT_SET_NO = 999
REV_AT_EPOCH   = 17805
BSTAR          = .26483669E-3
MEAN_MOTION_DOT = .7457E-4
MEAN_MOTION_DDOT = 0

CCSDS_OMM_VERS = 2.0
CREATION_DATE  = 
ORIGINATOR     = 

OBJECT_NAME    = CZ-2C R/B
OBJECT_ID      = 2004-046B
CENTER_NAME    = EARTH
REF_FRAME      = TEME
TIME_SYSTEM    = UTC
MEAN_ELEMENT_THEORY = SGP/SGP4

EPOCH          = 2026-02-25T08:31:09.750144
MEAN_MOTION    = 14.26987442
ECCENTRICITY   = .01391315
INCLINATION    = 98.1989
RA_OF_ASC_NODE = 332.1059
ARG_OF_PERICENTER = 190.8801
MEAN_ANOMALY   = 168.9364

EPHEMERIS_TYPE = 0
CLASSIFICATION_TYPE = U
NORAD_CAT_ID   = 28480
ELEMENT_SET_NO = 999
REV_AT_EPOCH   = 10674
BSTAR          = .55920861E-4
MEAN_MOTION_DOT = .11E-5
MEAN_MOTION_DDOT = 0

CCSDS_OMM_VERS = 2.0
CREATION_DATE  = 
ORIGINATOR     = 

OBJECT_NAME    = ARIANE 5 R/B
OBJECT_ID      = 2004-049H
CENTER_NAME    = EARTH
REF_FRAME      = TEME
TIME_SYSTEM    = UTC
MEAN_ELEMENT_THEORY = SGP/SGP4

EPOCH          = 2026-02-25T13:46:03.600192
MEAN_MOTION    = 14.85239405
ECCENTRICITY   = .00847958
INCLINATION    = 98.2608
RA_OF_ASC_NODE = 224.5789
ARG_OF_PERICENTER = 31.1190
MEAN_ANOMALY   = 329.5006

EPHEMERIS_TYPE = 0
CLASSIFICATION_TYPE = U
NORAD_CAT_ID   = 28499
ELEMENT_SET_NO = 999
REV_AT_EPOCH   = 14399
BSTAR          = .92851854E-4
MEAN_MOTION_DOT = .785E-5
MEAN_MOTION_DDOT = 0

CCSDS_OMM_VERS = 2.0
CREATION_DATE  = 
ORIGINATOR     = 

OBJECT_NAME    = CZ-2D R/B
OBJECT_ID      = 2005-024B
CENTER_NAME    = EARTH
REF_FRAME      = TEME
TIME_SYSTEM    = UTC
MEAN_ELEMENT_THEORY = SGP/SGP4

EPOCH          = 2026-02-25T12:26:03.890976
MEAN_MOTION    = 15.58941608
ECCENTRICITY   = .00074162
INCLINATION    = 97.3619
RA_OF_ASC_NODE = 71.2297
ARG_OF_PERICENTER = 76.1882
MEAN_ANOMALY   = 284.0199

EPHEMERIS_TYPE = 0
CLASSIFICATION_TYPE = U
NORAD_CAT_ID   = 28738
ELEMENT_SET_NO = 999
REV_AT_EPOCH   = 13788
BSTAR          = .49340738E-3
MEAN_MOTION_DOT = .38345E-3
MEAN_MOTION_DDOT = 0

